STARLINK-32774          
1 62737U 25014C   26116.37962656  .00040606  00000+0  14763-2 0  9995
2 62737  42.9995 248.2912 0003426 283.3275  76.7194 15.27591767 70515
STARLINK-32802          
1 62738U 25014D   26116.37111499  .00036103  00000+0  13146-2 0  9998
2 62738  42.9949 244.7618 0000262 146.3754 213.7114 15.27592237 70556
STARLINK-32796          
1 62739U 25014E   26116.36854957  .00041944  00000+0  15242-2 0  9999
2 62739  42.9996 244.7446 0003077 281.9794  78.0712 15.27597161 70552
STARLINK-32805          
1 62740U 25014F   26116.36098556  .00044840  00000+0  16287-2 0  9994
2 62740  43.0024 245.5576 0003846 282.7895  77.2527 15.27582636 70541
STARLINK-32770          
1 62741U 25014G   26116.38139711  .00014887  00000+0  54947-3 0  9990
2 62741  42.9983 244.8411 0002000 274.0201  86.0422 15.27575805 70553
STARLINK-32775          
1 62742U 25014H   26116.32757887  .00010214  00000+0  38019-3 0  9997
2 62742  43.0000 245.2971 0001323 259.5219 100.5484 15.27577259 70540
STARLINK-32800          
1 62743U 25014J   26116.42925330  .00012391  00000+0  45899-3 0  9991
2 62743  42.9994 252.1253 0000871 248.7049 111.3710 15.27583887 70477
STARLINK-32758          
1 62744U 25014K   26115.67322068  .00022912  00000+0  83928-3 0  9992
2 62744  42.9977 252.4502 0001347 282.4513  77.6188 15.27589973 70407
STARLINK-32746          
1 62745U 25014L   26116.36469440  .00042035  00000+0  15275-2 0  9993
2 62745  42.9994 244.7144 0002766 281.1302  78.9239 15.27595924 70551
STARLINK-32780          
1 62746U 25014M   26116.42508490  .00027118  00000+0  99112-3 0  9998
2 62746  42.9979 245.1696 0001317 229.5937 130.4800 15.27587325 70557
STARLINK-32765          
1 62747U 25014N   26116.33785832  .00038920  00000+0  14156-2 0  9993
2 62747  42.9963 245.3761 0000222 328.5183  31.5655 15.27598343 70543
STARLINK-32762          
1 62748U 25014P   26116.38219529  .00016751  00000+0  61698-3 0  9996
2 62748  42.9978 248.3087 0001687 269.0343  91.0315 15.27574034 70519
STARLINK-32761          
1 62749U 25014Q   26116.38476352  .00016009  00000+0  59006-3 0  9992
2 62749  42.9955 248.3262 0001999 284.6230  75.4400 15.27576171 70519
STARLINK-32763          
1 62750U 25014R   26116.37882572  .00012424  00000+0  46024-3 0  9991
2 62750  42.9957 244.8174 0000766 268.1208  91.9556 15.27578571 70554
STARLINK-32759          
1 62751U 25014S   26116.41689330  .00032299  00000+0  11782-2 0  9998
2 62751  42.9975 248.5728 0000985 239.4546 120.6208 15.27576813 70517
STARLINK-32756          
1 62752U 25014T   26116.36226939  .00016688  00000+0  61431-3 0  9996
2 62752  42.9995 245.5589 0002297 275.9674  84.0916 15.27593125 70544
STARLINK-32751          
1 62753U 25014U   26116.42122610  .00021694  00000+0  79509-3 0  9993
2 62753  42.9943 245.1373 0001687 180.7338 179.3512 15.27598230 70550
STARLINK-32740          
1 62754U 25014V   26116.36726397  .00028611  00000+0  10446-2 0  9999
2 62754  42.9899 244.7314 0002127 137.8269 222.2746 15.27597733 70551
STARLINK-32745          
1 62755U 25014W   26116.50002315 -.00005419  00000+0 -18762-3 0  9996
2 62755  43.0021 244.5473 0001532 272.0398 225.4868 15.27567585  5807
USA 485                 
1 62756U 25014X   26116.33141668  .00271993  00000+0  16150-2 0  9991
2 62756  42.9990  65.9836 0001409 247.0410 113.0311 15.76439643 72580
USA 486                 
1 62757U 25014Y   26116.26752149  .00360713  00000+0  21081-2 0  9994
2 62757  43.0015  66.3698 0005864 271.3890  88.6308 15.76537095 72586
STARLINK-33596          
1 62758U 25015A   26116.50002315  .00098657  00000+0  31553-2 0  9996
2 62758  53.1600 100.6514 0000771  59.1122  73.9476 15.31637855  5912
STARLINK-33589          
1 62759U 25015B   26116.34393382  .00013191  00000+0  45674-3 0  9996
2 62759  53.1615 101.3611 0001054 102.0772 258.0347 15.30197199 71017
STARLINK-33575          
1 62760U 25015C   26115.67389496  .00014096  00000+0  48707-3 0  9999
2 62760  53.1583 104.2574 0001596  86.9732 273.1452 15.30205040 70918
STARLINK-33584          
1 62761U 25015D   26116.31333012  .00023203  00000+0  79296-3 0  9992
2 62761  53.1569 101.1708 0001070  71.8669 288.2448 15.30204296 71776
STARLINK-33577          
1 62762U 25015E   26116.48909422  .00027401  00000+0  92054-3 0  9996
2 62762  53.1592 100.1320 0001498  85.8251 274.2921 15.30665876 71808
STARLINK-33597          
1 62763U 25015F   26115.95732518  .00022508  00000+0  76965-3 0  9994
2 62763  53.1593 103.2106 0001470 103.4743 256.6421 15.30204475 71712
STARLINK-33579          
1 62764U 25015G   26116.22270144  .00022072  00000+0  75561-3 0  9995
2 62764  53.1604 101.3171 0001335  85.2632 274.8521 15.30179584 71761
STARLINK-33592          
1 62765U 25015H   26116.33021326  .00014838  00000+0  51211-3 0  9991
2 62765  53.1582 101.2705 0001610  83.1031 277.0153 15.30198290 71643
STARLINK-33595          
1 62766U 25015J   26116.37019921  .00039677  00000+0  13448-2 0  9991
2 62766  53.1590 100.8141 0001207  91.5273 268.5866 15.30196541 71783
