OBJECT_NAME,OBJECT_ID,EPOCH,MEAN_MOTION,ECCENTRICITY,INCLINATION,RA_OF_ASC_NODE,ARG_OF_PERICENTER,MEAN_ANOMALY,EPHEMERIS_TYPE,CLASSIFICATION_TYPE,NORAD_CAT_ID,ELEMENT_SET_NO,REV_AT_EPOCH,BSTAR,MEAN_MOTION_DOT,MEAN_MOTION_DDOT
STARLINK-32774,2025-014C,2026-04-26T09:06:39.734784,15.27591767,.0003426,42.9995,248.2912,283.3275,76.7194,0,U,62737,999,7051,.14763E-2,.40606E-3,0
STARLINK-32802,2025-014D,2026-04-26T08:54:24.335136,15.27592237,.0000262,42.9949,244.7618,146.3754,213.7114,0,U,62738,999,7055,.13146E-2,.36103E-3,0
STARLINK-32796,2025-014E,2026-04-26T08:50:42.682848,15.27597161,.0003077,42.9996,244.7446,281.9794,78.0712,0,U,62739,999,7055,.15242E-2,.41944E-3,0
STARLINK-32805,2025-014F,2026-04-26T08:39:49.152384,15.27582636,.0003846,43.0024,245.5576,282.7895,77.2527,0,U,62740,999,7054,.16287E-2,.4484E-3,0
STARLINK-32770,2025-014G,2026-04-26T09:09:12.710304,15.27575805,.0002,42.9983,244.8411,274.0201,86.0422,0,U,62741,999,7055,.54947E-3,.14887E-3,0
STARLINK-32775,2025-014H,2026-04-26T07:51:42.814368,15.27577259,.0001323,43.0000,245.2971,259.5219,100.5484,0,U,62742,999,7054,.38019E-3,.10214E-3,0
STARLINK-32800,2025-014J,2026-04-26T10:18:07.485120,15.27583887,.0000871,42.9994,252.1253,248.7049,111.3710,0,U,62743,999,7047,.45899E-3,.12391E-3,0
STARLINK-32758,2025-014K,2026-04-25T16:09:26.266752,15.27589973,.0001347,42.9977,252.4502,282.4513,77.6188,0,U,62744,999,7040,.83927781E-3,.22912E-3,0
STARLINK-32746,2025-014L,2026-04-26T08:45:09.596160,15.27595924,.0002766,42.9994,244.7144,281.1302,78.9239,0,U,62745,999,7055,.15275E-2,.42035E-3,0
STARLINK-32780,2025-014M,2026-04-26T10:12:07.335360,15.27587325,.0001317,42.9979,245.1696,229.5937,130.4800,0,U,62746,999,7055,.99112E-3,.27118E-3,0
STARLINK-32765,2025-014N,2026-04-26T08:06:30.958848,15.27598343,.0000222,42.9963,245.3761,328.5183,31.5655,0,U,62747,999,7054,.14156E-2,.3892E-3,0
STARLINK-32762,2025-014P,2026-04-26T09:10:21.673056,15.27574034,.0001687,42.9978,248.3087,269.0343,91.0315,0,U,62748,999,7051,.61698E-3,.16751E-3,0
STARLINK-32761,2025-014Q,2026-04-26T09:14:03.568128,15.27576171,.0001999,42.9955,248.3262,284.6230,75.4400,0,U,62749,999,7051,.59006E-3,.16009E-3,0
STARLINK-32763,2025-014R,2026-04-26T09:05:30.542208,15.27578571,.0000766,42.9957,244.8174,268.1208,91.9556,0,U,62750,999,7055,.46024E-3,.12424E-3,0
STARLINK-32759,2025-014S,2026-04-26T10:00:19.581120,15.27576813,.0000985,42.9975,248.5728,239.4546,120.6208,0,U,62751,999,7051,.11782E-2,.32299E-3,0
STARLINK-32756,2025-014T,2026-04-26T08:41:40.075296,15.27593125,.0002297,42.9995,245.5589,275.9674,84.0916,0,U,62752,999,7054,.61431E-3,.16688E-3,0
STARLINK-32751,2025-014U,2026-04-26T10:06:33.935040,15.27598230,.0001687,42.9943,245.1373,180.7338,179.3512,0,U,62753,999,7055,.79509E-3,.21694E-3,0
STARLINK-32740,2025-014V,2026-04-26T08:48:51.607008,15.27597733,.0002127,42.9899,244.7314,137.8269,222.2746,0,U,62754,999,7055,.10446E-2,.28611E-3,0
STARLINK-32745,2025-014W,2026-04-26T12:00:02.000160,15.27567585,.0001532,43.0021,244.5473,272.0398,225.4868,0,U,62755,999,580,-.18762E-3,-.5419E-4,0
USA 485,2025-014X,2026-04-26T07:57:14.401152,15.76439643,.0001409,42.9990,65.9836,247.0410,113.0311,0,U,62756,999,7258,.1615E-2,.271993E-2,0
USA 486,2025-014Y,2026-04-26T06:25:13.856736,15.76537095,.0005864,43.0015,66.3698,271.3890,88.6308,0,U,62757,999,7258,.21081E-2,.360713E-2,0
STARLINK-33596,2025-015A,2026-04-26T12:00:02.000160,15.31637855,.0000771,53.1600,100.6514,59.1122,73.9476,0,U,62758,999,591,.31553E-2,.98657E-3,0
STARLINK-33589,2025-015B,2026-04-26T08:15:15.882048,15.30197199,.0001054,53.1615,101.3611,102.0772,258.0347,0,U,62759,999,7101,.45674E-3,.13191E-3,0
STARLINK-33575,2025-015C,2026-04-25T16:10:24.524544,15.30205040,.0001596,53.1583,104.2574,86.9732,273.1452,0,U,62760,999,7091,.4870731E-3,.14096E-3,0
STARLINK-33584,2025-015D,2026-04-26T07:31:11.722368,15.30204296,.000107,53.1569,101.1708,71.8669,288.2448,0,U,62761,999,7177,.79296E-3,.23203E-3,0
STARLINK-33577,2025-015E,2026-04-26T11:44:17.740608,15.30665876,.0001498,53.1592,100.1320,85.8251,274.2921,0,U,62762,999,7180,.92054E-3,.27401E-3,0
STARLINK-33597,2025-015F,2026-04-25T22:58:32.895552,15.30204475,.00014708,53.1593,103.2106,103.4743,256.6421,0,U,62763,999,7171,.76965053E-3,.22508E-3,0
STARLINK-33579,2025-015G,2026-04-26T05:20:41.404416,15.30179584,.0001335,53.1604,101.3171,85.2632,274.8521,0,U,62764,999,7176,.75561E-3,.22072E-3,0
STARLINK-33592,2025-015H,2026-04-26T07:55:30.425664,15.30198290,.000161,53.1582,101.2705,83.1031,277.0153,0,U,62765,999,7164,.51211E-3,.14838E-3,0
STARLINK-33595,2025-015J,2026-04-26T08:53:05.211744,15.30196541,.0001207,53.1590,100.8141,91.5273,268.5866,0,U,62766,999,7178,.13448E-2,.39677E-3,0
